ONEWEB-0363             
1 49289U 21090L   25362.78761381  .00000057  00000+0  10769-3 0  9990
2 49289  87.9221 308.4237 0002096  85.9426 274.1947 13.20772468207813
ONEWEB-0364             
1 49290U 21090M   25362.82549295  .00000053  00000+0  97730-4 0  9995
2 49290  87.9211 308.4379 0001891  81.4771 278.6577 13.20771610208959
ONEWEB-0365             
1 49291U 21090N   25362.44730122  .00000219  00000+0  51502-3 0  9995
2 49291  87.9222 338.9248 0001758  80.3546 279.7786 13.19725422203907
ONEWEB-0366             
1 49292U 21090P   25362.85592718 -.00000145  00000+0 -42471-3 0  9993
2 49292  87.8999 323.6553 0001821  83.3996 276.7341 13.14504253205189
ONEWEB-0367             
1 49293U 21090Q   25362.78604306  .00000058  00000+0  10986-3 0  9990
2 49293  87.9225 308.4232 0001683  74.0139 286.1179 13.20772214207334
ONEWEB-0368             
1 49294U 21090R   25362.83497512 -.00000042  00000+0 -13510-3 0  9997
2 49294  87.9214 308.4418 0002590  73.1532 286.9885 13.20771503208494
ONEWEB-0369             
1 49295U 21090S   25362.66999778  .00001382  00000+0  34196-2 0  9998
2 49295  87.9208 338.9060 0001785  79.2976 280.8357 13.19720995203920
ONEWEB-0370             
1 49296U 21090T   25362.79550779  .00000016  00000+0  66854-5 0  9999
2 49296  87.9217 308.4250 0001506  81.3855 278.7449 13.20771982207370
